start=new Date('2023-04-05T00:00:00.000Z').valueOf();
sats=[{"CLASSIFICATION_TYPE":"U","INCLINATION":"53.2168","MEAN_ELEMENT_THEORY":"SGP4","TLE_LINE2":"2 52831  53.2168 157.6386 0001706 101.5940 258.5244 15.08859059 44240","BSTAR":"0.00077723000000","TIME_SYSTEM":"UTC","GP_ID":"229496160","DECAY_DATE":null,"EPHEMERIS_TYPE":"0","REV_AT_EPOCH":"4424","MEAN_MOTION":"15.08859059","PERIAPSIS":"538.507","OBJECT_NAME":"STARLINK-4089","APOAPSIS":"540.867","RA_OF_ASC_NODE":"157.6386","MEAN_MOTION_DOT":"0.00012110","FILE":"3880211","MEAN_ANOMALY":"258.5244","ARG_OF_PERICENTER":"101.5940","EPOCH":"2023-04-04T16:01:12.154656","CENTER_NAME":"EARTH","ECCENTRICITY":"0.00017060","MEAN_MOTION_DDOT":"0.0000000000000","SEMIMAJOR_AXIS":"6917.822","NORAD_CAT_ID":"52831","OBJECT_ID":"2022-062B","REF_FRAME":"TEME","RCS_SIZE":"LARGE","LAUNCH_DATE":"2022-06-17","TLE_LINE1":"1 52831U 22062B   23094.66750179  .00012110  00000-0  77723-3 0  9994","PERIOD":"95.436","COUNTRY_CODE":"US","ELEMENT_SET_NO":"999","OBJECT_TYPE":"PAYLOAD","SITE":"AFETR"},{"ARG_OF_PERICENTER":"95.5827","MEAN_ANOMALY":"264.5344","FILE":"3879974","RA_OF_ASC_NODE":"158.2485","MEAN_MOTION_DOT":"0.00005802","APOAPSIS":"540.781","PERIAPSIS":"538.613","OBJECT_NAME":"STARLINK-4083","MEAN_MOTION":"15.08855956","REV_AT_EPOCH":"4422","EPHEMERIS_TYPE":"0","DECAY_DATE":null,"GP_ID":"229466552","TIME_SYSTEM":"UTC","BSTAR":"0.00038218000000","TLE_LINE2":"2 52832  53.2164 158.2485 0001567  95.5827 264.5344 15.08855956 44223","MEAN_ELEMENT_THEORY":"SGP4","CLASSIFICATION_TYPE":"U","INCLINATION":"53.2164","SITE":"AFETR","ELEMENT_SET_NO":"999","OBJECT_TYPE":"PAYLOAD","COUNTRY_CODE":"US","TLE_LINE1":"1 52832U 22062C   23094.53134507  .00005802  00000-0  38218-3 0  9998","PERIOD":"95.437","LAUNCH_DATE":"2022-06-17","REF_FRAME":"TEME","RCS_SIZE":"LARGE","OBJECT_ID":"2022-062C","NORAD_CAT_ID":"52832","MEAN_MOTION_DDOT":"0.0000000000000","SEMIMAJOR_AXIS":"6917.832","CENTER_NAME":"EARTH","EPOCH":"2023-04-04T12:45:08.214048","ECCENTRICITY":"0.00015670"},{"PERIOD":"95.437","TLE_LINE1":"1 52833U 22062D   23094.46142616  .00001480  00000-0  11103-3 0  9993","LAUNCH_DATE":"2022-06-17","RCS_SIZE":"LARGE","REF_FRAME":"TEME","SITE":"AFETR","OBJECT_TYPE":"PAYLOAD","ELEMENT_SET_NO":"999","COUNTRY_CODE":"US","NORAD_CAT_ID":"52833","SEMIMAJOR_AXIS":"6917.861","MEAN_MOTION_DDOT":"0.0000000000000","ECCENTRICITY":"0.00015180","EPOCH":"2023-04-04T11:04:27.220224","CENTER_NAME":"EARTH","OBJECT_ID":"2022-062D","APOAPSIS":"540.776","PERIAPSIS":"538.676","OBJECT_NAME":"STARLINK-4086","MEAN_MOTION":"15.08846258","ARG_OF_PERICENTER":"101.8843","MEAN_ANOMALY":"258.2319","FILE":"3879974","MEAN_MOTION_DOT":"0.00001480","RA_OF_ASC_NODE":"158.5625","TIME_SYSTEM":"UTC","GP_ID":"229466303","BSTAR":"0.00011103000000","MEAN_ELEMENT_THEORY":"SGP4","TLE_LINE2":"2 52833  53.2156 158.5625 0001518 101.8843 258.2319 15.08846258 44215","INCLINATION":"53.2156","CLASSIFICATION_TYPE":"U","EPHEMERIS_TYPE":"0","REV_AT_EPOCH":"4421","DECAY_DATE":null},{"OBJECT_ID":"2022-062E","EPOCH":"2023-04-04T15:40:01.005024","CENTER_NAME":"EARTH","ECCENTRICITY":"0.00013610","MEAN_MOTION_DDOT":"0.0000000000000","SEMIMAJOR_AXIS":"6917.794","NORAD_CAT_ID":"52834","COUNTRY_CODE":"US","ELEMENT_SET_NO":"999","OBJECT_TYPE":"PAYLOAD","SITE":"AFETR","REF_FRAME":"TEME","RCS_SIZE":"LARGE","LAUNCH_DATE":"2022-06-17","TLE_LINE1":"1 52834U 22062E   23094.65278941  .00009876  00000-0  63724-3 0  9999","PERIOD":"95.436","DECAY_DATE":null,"EPHEMERIS_TYPE":"0","REV_AT_EPOCH":"4424","INCLINATION":"53.2166","CLASSIFICATION_TYPE":"U","MEAN_ELEMENT_THEORY":"SGP4","TLE_LINE2":"2 52834  53.2166 157.7013 0001361  93.7809 266.3339 15.08868289 44249","BSTAR":"0.00063724000000","GP_ID":"229497409","TIME_SYSTEM":"UTC","RA_OF_ASC_NODE":"157.7013","MEAN_MOTION_DOT":"0.00009876","FILE":"3880211","MEAN_ANOMALY":"266.3339","ARG_OF_PERICENTER":"93.7809","MEAN_MOTION":"15.08868289","PERIAPSIS":"538.717","OBJECT_NAME":"STARLINK-4108","APOAPSIS":"540.600"},{"REV_AT_EPOCH":"4421","EPHEMERIS_TYPE":"0","DECAY_DATE":null,"TIME_SYSTEM":"UTC","GP_ID":"229465802","BSTAR":"0.00060803000000","MEAN_ELEMENT_THEORY":"SGP4","TLE_LINE2":"2 52835  53.2148 158.6117 0001170  80.8045 279.3080 15.08854681 44217","CLASSIFICATION_TYPE":"U","INCLINATION":"53.2148","ARG_OF_PERICENTER":"80.8045","MEAN_ANOMALY":"279.3080","FILE":"3879974","RA_OF_ASC_NODE":"158.6117","MEAN_MOTION_DOT":"0.00009406","APOAPSIS":"540.510","OBJECT_NAME":"STARLINK-4080","PERIAPSIS":"538.891","MEAN_MOTION":"15.08854681","OBJECT_ID":"2022-062F","NORAD_CAT_ID":"52835","MEAN_MOTION_DDOT":"0.0000000000000","SEMIMAJOR_AXIS":"6917.836","EPOCH":"2023-04-04T10:48:33.819552","CENTER_NAME":"EARTH","ECCENTRICITY":"0.00011700","SITE":"AFETR","ELEMENT_SET_NO":"999","OBJECT_TYPE":"PAYLOAD","COUNTRY_CODE":"US","TLE_LINE1":"1 52835U 22062F   23094.45039143  .00009406  00000-0  60803-3 0  9991","PERIOD":"95.437","LAUNCH_DATE":"2022-06-17","REF_FRAME":"TEME","RCS_SIZE":"LARGE"},{"TLE_LINE1":"1 52836U 22062G   23094.64543106  .00015592  00000-0  99528-3 0  9991","PERIOD":"95.437","LAUNCH_DATE":"2022-06-17","REF_FRAME":"TEME","RCS_SIZE":"LARGE","SITE":"AFETR","ELEMENT_SET_NO":"999","OBJECT_TYPE":"PAYLOAD","COUNTRY_CODE":"US","NORAD_CAT_ID":"52836","MEAN_MOTION_DDOT":"0.0000000000000","SEMIMAJOR_AXIS":"6917.845","EPOCH":"2023-04-04T15:29:25.243584","CENTER_NAME":"EARTH","ECCENTRICITY":"0.00012190","OBJECT_ID":"2022-062G","APOAPSIS":"540.553","OBJECT_NAME":"STARLINK-4043","PERIAPSIS":"538.867","MEAN_MOTION":"15.08851535","ARG_OF_PERICENTER":"82.9165","MEAN_ANOMALY":"277.1965","FILE":"3880211","RA_OF_ASC_NODE":"157.7348","MEAN_MOTION_DOT":"0.00015592","GP_ID":"229496910","TIME_SYSTEM":"UTC","BSTAR":"0.00099528000000","TLE_LINE2":"2 52836  53.2146 157.7348 0001219  82.9165 277.1965 15.08851535 44248","MEAN_ELEMENT_THEORY":"SGP4","CLASSIFICATION_TYPE":"U","INCLINATION":"53.2146","EPHEMERIS_TYPE":"0","REV_AT_EPOCH":"4424","DECAY_DATE":null},{"MEAN_ELEMENT_THEORY":"SGP4","TLE_LINE2":"2 52837  53.2143 158.6617 0001468  80.6807 279.4351 15.08854534 44212","INCLINATION":"53.2143","CLASSIFICATION_TYPE":"U","GP_ID":"229466803","TIME_SYSTEM":"UTC","BSTAR":"0.00066423000000","DECAY_DATE":null,"EPHEMERIS_TYPE":"0","REV_AT_EPOCH":"4421","MEAN_MOTION":"15.08854534","APOAPSIS":"540.717","PERIAPSIS":"538.685","OBJECT_NAME":"STARLINK-4036","MEAN_MOTION_DOT":"0.00010303","RA_OF_ASC_NODE":"158.6617","MEAN_ANOMALY":"279.4351","ARG_OF_PERICENTER":"80.6807","FILE":"3879974","SEMIMAJOR_AXIS":"6917.836","MEAN_MOTION_DDOT":"0.0000000000000","ECCENTRICITY":"0.00014680","CENTER_NAME":"EARTH","EPOCH":"2023-04-04T10:32:40.099200","NORAD_CAT_ID":"52837","OBJECT_ID":"2022-062H","LAUNCH_DATE":"2022-06-17","RCS_SIZE":"LARGE","REF_FRAME":"TEME","PERIOD":"95.437","TLE_LINE1":"1 52837U 22062H   23094.43935300  .00010303  00000-0  66423-3 0  9993","COUNTRY_CODE":"US","SITE":"AFETR","OBJECT_TYPE":"PAYLOAD","ELEMENT_SET_NO":"999"},{"EPHEMERIS_TYPE":"0","REV_AT_EPOCH":"4424","DECAY_DATE":null,"GP_ID":"229497910","TIME_SYSTEM":"UTC","BSTAR":"0.00038042000000","TLE_LINE2":"2 52838  53.2160 157.7384 0001368  81.0753 279.0394 15.08856298 44242","MEAN_ELEMENT_THEORY":"SGP4","INCLINATION":"53.2160","CLASSIFICATION_TYPE":"U","MEAN_ANOMALY":"279.0394","ARG_OF_PERICENTER":"81.0753","FILE":"3880211","RA_OF_ASC_NODE":"157.7384","MEAN_MOTION_DOT":"0.00005774","APOAPSIS":"540.642","OBJECT_NAME":"STARLINK-4092","PERIAPSIS":"538.749","MEAN_MOTION":"15.08856298","OBJECT_ID":"2022-062J","NORAD_CAT_ID":"52838","MEAN_MOTION_DDOT":"0.0000000000000","SEMIMAJOR_AXIS":"6917.831","CENTER_NAME":"EARTH","EPOCH":"2023-04-04T15:24:06.529536","ECCENTRICITY":"0.00013680","SITE":"AFETR","ELEMENT_SET_NO":"999","OBJECT_TYPE":"PAYLOAD","COUNTRY_CODE":"US","TLE_LINE1":"1 52838U 22062J   23094.64174224  .00005774  00000-0  38042-3 0  9999","PERIOD":"95.437","LAUNCH_DATE":"2022-06-17","REF_FRAME":"TEME","RCS_SIZE":"LARGE"},{"SITE":"AFETR","OBJECT_TYPE":"PAYLOAD","ELEMENT_SET_NO":"999","COUNTRY_CODE":"US","PERIOD":"95.437","TLE_LINE1":"1 52839U 22062K   23094.49822969  .00025345  00000-0  16042-2 0  9990","LAUNCH_DATE":"2022-06-17","RCS_SIZE":"LARGE","REF_FRAME":"TEME","OBJECT_ID":"2022-062K","NORAD_CAT_ID":"52839","SEMIMAJOR_AXIS":"6917.835","MEAN_MOTION_DDOT":"0.0000000000000","ECCENTRICITY":"0.00012910","EPOCH":"2023-04-04T11:57:27.045216","CENTER_NAME":"EARTH","MEAN_ANOMALY":"273.6471","ARG_OF_PERICENTER":"86.4669","FILE":"3879974","MEAN_MOTION_DOT":"0.00025345","RA_OF_ASC_NODE":"158.3974","APOAPSIS":"540.594","PERIAPSIS":"538.807","OBJECT_NAME":"STARLINK-4048","MEAN_MOTION":"15.08854688","EPHEMERIS_TYPE":"0","REV_AT_EPOCH":"4422","DECAY_DATE":null,"TIME_SYSTEM":"UTC","GP_ID":"229465302","BSTAR":"0.00160420000000","MEAN_ELEMENT_THEORY":"SGP4","TLE_LINE2":"2 52839  53.2138 158.3974 0001291  86.4669 273.6471 15.08854688 44225","CLASSIFICATION_TYPE":"U","INCLINATION":"53.2138"},{"TLE_LINE1":"1 52840U 22062L   23094.70062968  .00013439  00000-0  86049-3 0  9997","PERIOD":"95.437","LAUNCH_DATE":"2022-06-17","REF_FRAME":"TEME","RCS_SIZE":"LARGE","SITE":"AFETR","ELEMENT_SET_NO":"999","OBJECT_TYPE":"PAYLOAD","COUNTRY_CODE":"US","NORAD_CAT_ID":"52840","MEAN_MOTION_DDOT":"0.0000000000000","SEMIMAJOR_AXIS":"6917.833","EPOCH":"2023-04-04T16:48:54.404352","CENTER_NAME":"EARTH","ECCENTRICITY":"0.00013000","OBJECT_ID":"2022-062L","APOAPSIS":"540.597","PERIAPSIS":"538.799","OBJECT_NAME":"STARLINK-4049","MEAN_MOTION":"15.08855559","MEAN_ANOMALY":"249.2107","ARG_OF_PERICENTER":"110.9024","FILE":"3880211","RA_OF_ASC_NODE":"157.4859","MEAN_MOTION_DOT":"0.00013439","GP_ID":"229496410","TIME_SYSTEM":"UTC","BSTAR":"0.00086049000000","MEAN_ELEMENT_THEORY":"SGP4","TLE_LINE2":"2 52840  53.2140 157.4859 0001300 110.9024 249.2107 15.08855559 44257","CLASSIFICATION_TYPE":"U","INCLINATION":"53.2140","EPHEMERIS_TYPE":"0","REV_AT_EPOCH":"4425","DECAY_DATE":null}];
